OBJECT_NAME,OBJECT_ID,EPOCH,MEAN_MOTION,ECCENTRICITY,INCLINATION,RA_OF_ASC_NODE,ARG_OF_PERICENTER,MEAN_ANOMALY,EPHEMERIS_TYPE,CLASSIFICATION_TYPE,NORAD_CAT_ID,ELEMENT_SET_NO,REV_AT_EPOCH,BSTAR,MEAN_MOTION_DOT,MEAN_MOTION_DDOT
SAUDISAT 2,2004-025F,2026-07-02T06:40:14.009952,14.56692512,.0023503,98.5511,183.6500,249.4990,110.3685,0,U,28371,999,16794,.76076E-4,.291E-5,0
COSMOS 2407,2004-028A,2026-07-02T14:44:54.629088,13.76335862,.0038476,82.9597,63.4076,207.5228,170.1027,0,U,28380,999,10200,.52989E-4,.67E-6,0
COSMOS 2414,2005-002A,2026-07-02T02:22:44.320512,13.87927307,.00387617,82.9488,32.3648,287.5954,72.0978,0,U,28521,999,8588,.22876851E-4,.43E-6,0
INMARSAT 4-F1,2005-009A,2026-07-02T18:15:00.511776,1.00271810,.00029215,5.1880,42.7717,62.0997,267.7876,0,U,28628,999,7782,0,.41E-6,0
SJ-7,2005-024A,2026-07-02T13:03:35.695296,15.21775273,.0014663,97.7268,214.0620,344.8689,15.2105,0,U,28737,999,15036,.3816E-3,.8609E-4,0
CUBESAT XI-V,2005-043F,2026-07-02T16:34:05.847744,14.72675255,.00146988,98.3002,339.6391,152.1460,208.0536,0,U,28895,999,10403,.27822672E-3,.1723E-4,0
HINODE (SOLAR-B),2006-041A,2026-07-02T18:53:57.795936,14.68645022,.00162186,98.0543,199.7098,235.7614,124.2056,0,U,29479,999,5716,.15592011E-3,.859E-5,0
SHIJIAN-6 02B (SJ-6 02B),2006-046B,2026-07-03T16:11:28.989312,15.01417545,.00148633,97.7148,213.6315,13.1508,347.0101,0,U,29506,999,7321,.1137039E-3,.1409E-4,0
DMSP 5D-3 F17 (USA 191),2006-050A,2026-07-02T20:49:19.938432,14.14995026,.00104677,98.7380,190.1168,17.8620,342.2919,0,U,29522,999,1464,.39973615E-4,.34E-6,0
LAPAN-TUBSAT,2007-001A,2026-07-03T14:49:04.651680,14.85966252,.00131547,98.1340,184.2122,127.8827,232.3580,0,U,29709,999,5359,.85398879E-4,.689E-5,0
HAIYANG-1B,2007-010A,2026-07-02T21:02:38.505120,14.31030925,.00140467,98.3503,165.1140,150.1147,210.0842,0,U,31113,999,288,.58628997E-4,.113E-5,0
COSMO-SKYMED 2,2007-059A,2026-07-03T15:12:23.611104,14.82159308,.00013248,97.8889,7.9932,90.8084,269.3281,0,U,32376,999,444,.68105877E-4,.49E-5,0
CARTOSAT-2A,2008-021A,2026-07-03T16:28:53.181696,14.79263618,.00131983,97.7620,232.8318,61.0323,299.2210,0,U,32783,999,98124,.1278511E-3,.901E-5,0
CUTE-1.7+APD II (CO-65),2008-021C,2026-07-03T05:22:38.856576,15.09607835,.00080854,97.8286,165.9782,346.2326,13.8680,0,U,32785,999,98761,.37225811E-3,.5922E-4,0
SEEDS II (CO-66),2008-021J,2026-07-02T19:13:39.277920,15.33292646,.00015044,97.7521,182.4499,186.8338,173.2883,0,U,32791,999,98968,.62654245E-3,.20103E-3,0
YUBILEINY (RS30),2008-025A,2026-07-03T16:14:47.863104,12.43179804,.00185101,82.5048,345.1806,275.7656,84.1313,0,U,32953,999,82174,-.61020056E-3,-.75E-6,0
FENGYUN 3A,2008-026A,2026-07-02T20:03:18.362016,14.19574446,.00098817,98.6885,124.3762,83.5691,276.6610,0,U,32958,999,93762,.63361281E-4,.9E-6,0
HUANJING 1A (HJ-1A),2008-041A,2026-07-03T16:27:39.778848,14.84024010,.00206737,97.6688,169.8869,84.1793,276.1778,0,U,33320,999,96085,.85460065E-4,.663E-5,0
HUANJING 1B (HJ-1B),2008-041B,2026-07-03T15:53:59.822016,14.83346910,.00374964,97.6523,172.9861,127.6185,232.8443,0,U,33321,999,96085,.15864855E-3,.1264E-4,0
SHIJIAN-6 03A (SJ-6 03A),2008-053A,2026-07-03T14:27:30.299328,15.17326104,.00100144,97.8397,218.4947,323.0320,37.0222,0,U,33408,999,96545,.32381538E-3,.6394E-4,0
SHIJIAN-6 03B (SJ-6 03B),2008-053B,2026-07-03T15:53:48.742944,15.04357062,.0019113,97.8568,204.8259,349.8060,10.2775,0,U,33409,999,96522,.14127207E-3,.1912E-4,0
