SAUDISAT 2              
1 28371U 04025F   26183.27793993  .00000291  00000+0  76076-4 0  9992
2 28371  98.5511 183.6500 0023503 249.4990 110.3685 14.56692512167947
COSMOS 2407             
1 28380U 04028A   26183.61452117  .00000067  00000+0  52989-4 0  9991
2 28380  82.9597  63.4076 0038476 207.5228 170.1027 13.76335862102008
COSMOS 2414             
1 28521U 05002A   26183.09912408  .00000043  00000+0  22877-4 0  9994
2 28521  82.9488  32.3648 0038761 287.5954  72.0978 13.87927307 85889
INMARSAT 4-F1           
1 28628U 05009A   26183.76042259  .00000041  00000+0  00000+0 0  9998
2 28628   5.1880  42.7717 0002921  62.0997 267.7876  1.00271810 77822
SJ-7                    
1 28737U 05024A   26183.54416314  .00008609  00000+0  38160-3 0  9999
2 28737  97.7268 214.0620 0014663 344.8689  15.2105 15.21775273150364
CUBESAT XI-V            
1 28895U 05043F   26183.69034546  .00001723  00000+0  27823-3 0  9998
2 28895  98.3002 339.6391 0014698 152.1460 208.0536 14.72675255104033
HINODE (SOLAR-B)        
1 29479U 06041A   26183.78747449  .00000859  00000+0  15592-3 0  9998
2 29479  98.0543 199.7098 0016218 235.7614 124.2056 14.68645022 57168
SHIJIAN-6 02B (SJ-6 02B)
1 29506U 06046B   26184.67464108  .00001409  00000+0  11370-3 0  9993
2 29506  97.7148 213.6315 0014863  13.1508 347.0101 15.01417545 73213
DMSP 5D-3 F17 (USA 191) 
1 29522U 06050A   26183.86759188  .00000034  00000+0  39974-4 0  9995
2 29522  98.7380 190.1168 0010467  17.8620 342.2919 14.14995026 14641
LAPAN-TUBSAT            
1 29709U 07001A   26184.61741495  .00000689  00000+0  85399-4 0  9993
2 29709  98.1340 184.2122 0013154 127.8827 232.3580 14.85966252 53596
HAIYANG-1B              
1 31113U 07010A   26183.87683455  .00000113  00000+0  58629-4 0  9991
2 31113  98.3503 165.1140 0014046 150.1147 210.0842 14.31030925  2884
COSMO-SKYMED 2          
1 32376U 07059A   26184.63360661  .00000490  00000+0  68106-4 0  9991
2 32376  97.8889   7.9932 0001324  90.8084 269.3281 14.82159308  4445
CARTOSAT-2A             
1 32783U 08021A   26184.68672664  .00000901  00000+0  12785-3 0  9995
2 32783  97.7620 232.8318 0013198  61.0323 299.2210 14.79263618981246
CUTE-1.7+APD II (CO-65) 
1 32785U 08021C   26184.22406084  .00005922  00000+0  37226-3 0  9993
2 32785  97.8286 165.9782 0008085 346.2326  13.8680 15.09607835987613
SEEDS II (CO-66)        
1 32791U 08021J   26183.80114905  .00020103  00000+0  62654-3 0  9992
2 32791  97.7521 182.4499 0001504 186.8338 173.2883 15.33292646989682
YUBILEINY (RS30)        
1 32953U 08025A   26184.67694286 -.00000075  00000+0 -61020-3 0  9991
2 32953  82.5048 345.1806 0018510 275.7656  84.1313 12.43179804821742
FENGYUN 3A              
1 32958U 08026A   26183.83562919  .00000090  00000+0  63361-4 0  9997
2 32958  98.6885 124.3762 0009881  83.5691 276.6610 14.19574446937626
HUANJING 1A (HJ-1A)     
1 33320U 08041A   26184.68587707  .00000663  00000+0  85460-4 0  9994
2 33320  97.6688 169.8869 0020673  84.1793 276.1778 14.84024010960854
HUANJING 1B (HJ-1B)     
1 33321U 08041B   26184.66249794  .00001264  00000+0  15865-3 0  9993
2 33321  97.6523 172.9861 0037496 127.6185 232.8443 14.83346910960852
SHIJIAN-6 03A (SJ-6 03A)
1 33408U 08053A   26184.60243402  .00006394  00000+0  32382-3 0  9998
2 33408  97.8397 218.4947 0010014 323.0320  37.0222 15.17326104965452
SHIJIAN-6 03B (SJ-6 03B)
1 33409U 08053B   26184.66236971  .00001912  00000+0  14127-3 0  9996
2 33409  97.8568 204.8259 0019113 349.8060  10.2775 15.04357062965228
